{"type": "FeatureCollection", "features": [ {"type": "Feature", "properties": {"norad_id": 42741, "name": "EUTELSAT 172B", "group": "eutelsat", "lat": 0.0070244915702598444, "lon": 115.37479269153859, "alt_km": 35786.08896242735, "timestamp": "2025-12-14T14:39:29.047719+00:00", "meta": {"OBJECT_NAME": "EUTELSAT 172B", "OBJECT_ID": "2017-029B", "EPOCH": "2025-12-13T17:41:33.880416", "MEAN_MOTION": 1.00271276, "ECCENTRICITY": 2.259e-05, "INCLINATION": 0.0352, "RA_OF_ASC_NODE": 157.4295, "ARG_OF_PERICENTER": 233.5393, "MEAN_ANOMALY": 129.0734, "EPHEMERIS_TYPE": 0, "CLASSIFICATION_TYPE": "U", "NORAD_CAT_ID": 42741, "ELEMENT_SET_NO": 999, "REV_AT_EPOCH": 3187, "BSTAR": 0, "MEAN_MOTION_DOT": 1e-07, "MEAN_MOTION_DDOT": 0}, "tle": {"line1": "1 42741U 17029B   25347.73719769  .00000010  00000+0  00000+0 0  9996", "line2": "2 42741   0.0352 157.4295 0000225 233.5393 129.0734  1.00271276 31871"}}, "geometry": {"type": "Point", "coordinates": [115.37479269153859, 0.0070244915702598444]}}, {"type": "Feature", "properties": {"norad_id": 44334, "name": "EUTELSAT 7C", "group": "eutelsat", "lat": 0.047014022041102894, "lon": -49.59295889863949, "alt_km": 35780.26726970587, "timestamp": "2025-12-14T14:39:29.047730+00:00", "meta": {"OBJECT_NAME": "EUTELSAT 7C", "OBJECT_ID": "2019-034B", "EPOCH": "2025-12-13T22:23:38.652000", "MEAN_MOTION": 1.00271601, "ECCENTRICITY": 0.00031544, "INCLINATION": 0.0725, "RA_OF_ASC_NODE": 177.9077, "ARG_OF_PERICENTER": 68.1712, "MEAN_ANOMALY": 179.6773, "EPHEMERIS_TYPE": 0, "CLASSIFICATION_TYPE": "U", "NORAD_CAT_ID": 44334, "ELEMENT_SET_NO": 999, "REV_AT_EPOCH": 497, "BSTAR": 0, "MEAN_MOTION_DOT": 6.5e-07, "MEAN_MOTION_DDOT": 0}, "tle": {"line1": "1 44334U 19034B   25347.93308625  .00000065  00000+0  00000+0 0  9991", "line2": "2 44334   0.0725 177.9077 0003154  68.1712 179.6773  1.00271601  4978"}}, "geometry": {"type": "Point", "coordinates": [-49.59295889863949, 0.047014022041102894]}}, {"type": "Feature", "properties": {"norad_id": 44624, "name": "EUTELSAT 5 WEST B", "group": "eutelsat", "lat": -0.062212886561965476, "lon": -61.58956361060966, "alt_km": 35774.61286203551, "timestamp": "2025-12-14T14:39:29.047742+00:00", "meta": {"OBJECT_NAME": "EUTELSAT 5 WEST B", "OBJECT_ID": "2019-067A", "EPOCH": "2025-12-13T22:31:38.836416", "MEAN_MOTION": 1.00272182, "ECCENTRICITY": 0.00032756, "INCLINATION": 0.0615, "RA_OF_ASC_NODE": 352.0046, "ARG_OF_PERICENTER": 271.3751, "MEAN_ANOMALY": 152.3961, "EPHEMERIS_TYPE": 0, "CLASSIFICATION_TYPE": "U", "NORAD_CAT_ID": 44624, "ELEMENT_SET_NO": 999, "REV_AT_EPOCH": 2257, "BSTAR": 0, "MEAN_MOTION_DOT": -2.6e-07, "MEAN_MOTION_DDOT": 0}, "tle": {"line1": "1 44624U 19067A   25347.93864394 -.00000026  00000+0  00000+0 0  9997", "line2": "2 44624   0.0615 352.0046 0003275 271.3751 152.3961  1.00272182 22573"}}, "geometry": {"type": "Point", "coordinates": [-61.58956361060966, -0.062212886561965476]}}, {"type": "Feature", "properties": {"norad_id": 45027, "name": "EUTELSAT KONNECT", "group": "eutelsat", "lat": -0.04968015223669913, "lon": -49.418261442283814, "alt_km": 35781.01864366144, "timestamp": "2025-12-14T14:39:29.047754+00:00", "meta": {"OBJECT_NAME": "EUTELSAT KONNECT", "OBJECT_ID": "2020-005B", "EPOCH": "2025-12-13T22:23:38.652000", "MEAN_MOTION": 1.00269274, "ECCENTRICITY": 0.00014757, "INCLINATION": 0.0712, "RA_OF_ASC_NODE": 96.3126, "ARG_OF_PERICENTER": 191.1832, "MEAN_ANOMALY": 138.4667, "EPHEMERIS_TYPE": 0, "CLASSIFICATION_TYPE": "U", "NORAD_CAT_ID": 45027, "ELEMENT_SET_NO": 999, "REV_AT_EPOCH": 2247, "BSTAR": 0, "MEAN_MOTION_DOT": 6.6e-07, "MEAN_MOTION_DDOT": 0}, "tle": {"line1": "1 45027U 20005B   25347.93308625  .00000066  00000+0  00000+0 0  9992", "line2": "2 45027   0.0712  96.3126 0001475 191.1832 138.4667  1.00269274 22470"}}, "geometry": {"type": "Point", "coordinates": [-49.418261442283814, -0.04968015223669913]}}, {"type": "Feature", "properties": {"norad_id": 49056, "name": "EUTELSAT QUANTUM", "group": "eutelsat", "lat": -0.015149941283149278, "lon": -8.861740873018789, "alt_km": 35781.81134594961, "timestamp": "2025-12-14T14:39:29.047765+00:00", "meta": {"OBJECT_NAME": "EUTELSAT QUANTUM", "OBJECT_ID": "2021-069B", "EPOCH": "2025-12-13T23:35:38.601888", "MEAN_MOTION": 1.00273424, "ECCENTRICITY": 0.00035624, "INCLINATION": 0.0255, "RA_OF_ASC_NODE": 46.1867, "ARG_OF_PERICENTER": 229.4434, "MEAN_ANOMALY": 208.8952, "EPHEMERIS_TYPE": 0, "CLASSIFICATION_TYPE": "U", "NORAD_CAT_ID": 49056, "ELEMENT_SET_NO": 999, "REV_AT_EPOCH": 1607, "BSTAR": 0, "MEAN_MOTION_DOT": 1.42e-06, "MEAN_MOTION_DDOT": 0}, "tle": {"line1": "1 49056U 21069B   25347.98308567  .00000142  00000+0  00000+0 0  9994", "line2": "2 49056   0.0255  46.1867 0003562 229.4434 208.8952  1.00273424 16075"}}, "geometry": {"type": "Point", "coordinates": [-8.861740873018789, -0.015149941283149278]}}, {"type": "Feature", "properties": {"norad_id": 53765, "name": "EUTELSAT KONNECT VHTS", "group": "eutelsat", "lat": -0.04103991081629194, "lon": -53.869830547398905, "alt_km": 35781.62829197327, "timestamp": "2025-12-14T14:39:29.047777+00:00", "meta": {"OBJECT_NAME": "EUTELSAT KONNECT VHTS", "OBJECT_ID": "2022-110A", "EPOCH": "2025-12-12T23:45:57.918816", "MEAN_MOTION": 1.00271501, "ECCENTRICITY": 0.00023835, "INCLINATION": 0.0657, "RA_OF_ASC_NODE": 101.0037, "ARG_OF_PERICENTER": 141.1037, "MEAN_ANOMALY": 199.031, "EPHEMERIS_TYPE": 0, "CLASSIFICATION_TYPE": "U", "NORAD_CAT_ID": 53765, "ELEMENT_SET_NO": 999, "REV_AT_EPOCH": 495, "BSTAR": 0, "MEAN_MOTION_DOT": 3e-07, "MEAN_MOTION_DDOT": 0}, "tle": {"line1": "1 53765U 22110A   25346.99025369  .00000030  00000+0  00000+0 0  9996", "line2": "2 53765   0.0657 101.0037 0002383 141.1037 199.0310  1.00271501  4959"}}, "geometry": {"type": "Point", "coordinates": [-53.869830547398905, -0.04103991081629194]}}, {"type": "Feature", "properties": {"norad_id": 54048, "name": "EUTELSAT HOTBIRD 13F", "group": "eutelsat", "lat": 0.014022601351040815, "lon": -43.63818451310253, "alt_km": 35779.380988267294, "timestamp": "2025-12-14T14:39:29.047790+00:00", "meta": {"OBJECT_NAME": "EUTELSAT HOTBIRD 13F", "OBJECT_ID": "2022-134A", "EPOCH": "2025-12-13T15:13:25.567680", "MEAN_MOTION": 1.00270384, "ECCENTRICITY": 0.00022972, "INCLINATION": 0.0478, "RA_OF_ASC_NODE": 293.4985, "ARG_OF_PERICENTER": 66.2228, "MEAN_ANOMALY": 324.1956, "EPHEMERIS_TYPE": 0, "CLASSIFICATION_TYPE": "U", "NORAD_CAT_ID": 54048, "ELEMENT_SET_NO": 999, "REV_AT_EPOCH": 1151, "BSTAR": 0, "MEAN_MOTION_DOT": 1.02e-06, "MEAN_MOTION_DDOT": 0}, "tle": {"line1": "1 54048U 22134A   25347.63432370  .00000102  00000+0  00000+0 0  9993", "line2": "2 54048   0.0478 293.4985 0002297  66.2228 324.1956  1.00270384 11511"}}, "geometry": {"type": "Point", "coordinates": [-43.63818451310253, 0.014022601351040815]}}, {"type": "Feature", "properties": {"norad_id": 54225, "name": "EUTELSAT HOTBIRD 13G", "group": "eutelsat", "lat": 0.03357606192325731, "lon": -43.60398296857755, "alt_km": 35790.947025836125, "timestamp": "2025-12-14T14:39:29.047806+00:00", "meta": {"OBJECT_NAME": "EUTELSAT HOTBIRD 13G", "OBJECT_ID": "2022-146A", "EPOCH": "2025-12-13T08:22:27.424992", "MEAN_MOTION": 1.00272446, "ECCENTRICITY": 0.00017362, "INCLINATION": 0.0478, "RA_OF_ASC_NODE": 234.0643, "ARG_OF_PERICENTER": 306.9385, "MEAN_ANOMALY": 39.8842, "EPHEMERIS_TYPE": 0, "CLASSIFICATION_TYPE": "U", "NORAD_CAT_ID": 54225, "ELEMENT_SET_NO": 999, "REV_AT_EPOCH": 560, "BSTAR": 0, "MEAN_MOTION_DOT": 1.01e-06, "MEAN_MOTION_DDOT": 0}, "tle": {"line1": "1 54225U 22146A   25347.34892853  .00000101  00000+0  00000+0 0  9996", "line2": "2 54225   0.0478 234.0643 0001736 306.9385  39.8842  1.00272446  5603"}}, "geometry": {"type": "Point", "coordinates": [-43.60398296857755, 0.03357606192325731]}}, {"type": "Feature", "properties": {"norad_id": 54259, "name": "EUTELSAT 10B", "group": "eutelsat", "lat": -0.041537007890046, "lon": -46.643960810118145, "alt_km": 35789.013315996905, "timestamp": "2025-12-14T14:39:29.047817+00:00", "meta": {"OBJECT_NAME": "EUTELSAT 10B", "OBJECT_ID": "2022-157A", "EPOCH": "2025-12-13T22:23:38.652000", "MEAN_MOTION": 1.00270124, "ECCENTRICITY": 6.005e-05, "INCLINATION": 0.0596, "RA_OF_ASC_NODE": 100.0826, "ARG_OF_PERICENTER": 37.7062, "MEAN_ANOMALY": 290.9521, "EPHEMERIS_TYPE": 0, "CLASSIFICATION_TYPE": "U", "NORAD_CAT_ID": 54259, "ELEMENT_SET_NO": 999, "REV_AT_EPOCH": 1116, "BSTAR": 0, "MEAN_MOTION_DOT": 8.5e-07, "MEAN_MOTION_DDOT": 0}, "tle": {"line1": "1 54259U 22157A   25347.93308625  .00000085  00000+0  00000+0 0  9990", "line2": "2 54259   0.0596 100.0826 0000600  37.7062 290.9521  1.00270124 11169"}}, "geometry": {"type": "Point", "coordinates": [-46.643960810118145, -0.041537007890046]}}, {"type": "Feature", "properties": {"norad_id": 59346, "name": "EUTELSAT 36D", "group": "eutelsat", "lat": -0.0036866517038598124, "lon": -20.7848455673059, "alt_km": 35784.918853976036, "timestamp": "2025-12-14T14:39:29.047829+00:00", "meta": {"OBJECT_NAME": "EUTELSAT 36D", "OBJECT_ID": "2024-059A", "EPOCH": "2025-12-13T22:10:47.896608", "MEAN_MOTION": 1.00269756, "ECCENTRICITY": 4.273e-05, "INCLINATION": 0.0208, "RA_OF_ASC_NODE": 350.254, "ARG_OF_PERICENTER": 12.5977, "MEAN_ANOMALY": 88.5315, "EPHEMERIS_TYPE": 0, "CLASSIFICATION_TYPE": "U", "NORAD_CAT_ID": 59346, "ELEMENT_SET_NO": 999, "REV_AT_EPOCH": 629, "BSTAR": 0, "MEAN_MOTION_DOT": 0, "MEAN_MOTION_DDOT": 0}, "tle": {"line1": "1 59346U 24059A   25347.92416547  .00000000  00000+0  00000+0 0  9994", "line2": "2 59346   0.0208 350.2540 0000427  12.5977  88.5315  1.00269756  6295"}}, "geometry": {"type": "Point", "coordinates": [-20.7848455673059, -0.0036866517038598124]}}]}